[{"OBJECT_NAME":"TIANMU-1 09","OBJECT_ID":"2023-101C","EPOCH":"2026-03-09T22:17:34.703232","MEAN_MOTION":15.29080822,"ECCENTRICITY":0.00049013,"INCLINATION":97.267,"RA_OF_ASC_NODE":121.1263,"ARG_OF_PERICENTER":139.4293,"MEAN_ANOMALY":220.7314,"EPHEMERIS_TYPE":0,"CLASSIFICATION_TYPE":"U","NORAD_CAT_ID":57401,"ELEMENT_SET_NO":999,"REV_AT_EPOCH":14647,"BSTAR":0.00030540035,"MEAN_MOTION_DOT":8.553e-5,"MEAN_MOTION_DDOT":0},{"OBJECT_NAME":"STARLINK-35446","OBJECT_ID":"2025-259L","EPOCH":"2026-03-09T22:45:45.286848","MEAN_MOTION":15.27602924,"ECCENTRICITY":0.00020187,"INCLINATION":43.0062,"RA_OF_ASC_NODE":272.6467,"ARG_OF_PERICENTER":282.9633,"MEAN_ANOMALY":77.0994,"EPHEMERIS_TYPE":0,"CLASSIFICATION_TYPE":"U","NORAD_CAT_ID":66432,"ELEMENT_SET_NO":999,"REV_AT_EPOCH":1953,"BSTAR":0.00084947857,"MEAN_MOTION_DOT":0.00023204,"MEAN_MOTION_DDOT":0}]
